start=new Date('2022-07-22T00:00:00.000Z').valueOf();
sats=[{"DECAY_DATE":null,"CENTER_NAME":"EARTH","MEAN_MOTION_DOT":"0.00000052","MEAN_MOTION":"15.06389869","LAUNCH_DATE":"2021-02-16","OBJECT_TYPE":"PAYLOAD","MEAN_MOTION_DDOT":"0.0000000000000","OBJECT_NAME":"STARLINK-2095","RA_OF_ASC_NODE":"269.0817","REF_FRAME":"TEME","SEMIMAJOR_AXIS":"6925.380","RCS_SIZE":"LARGE","INCLINATION":"53.0534","TLE_LINE2":"2 47679  53.0534 269.0817 0001479  72.5083 287.6067 15.06389869 79977","FILE":"3519265","ARG_OF_PERICENTER":"72.5083","REV_AT_EPOCH":"7997","APOAPSIS":"548.269","PERIOD":"95.593","MEAN_ANOMALY":"287.6067","PERIAPSIS":"546.220","SITE":"AFETR","EPOCH":"2022-07-21T14:52:31.300608","BSTAR":"0.00002240300000","EPHEMERIS_TYPE":"0","CLASSIFICATION_TYPE":"U","OBJECT_ID":"2021-012BM","COUNTRY_CODE":"US","GP_ID":"208604080","ECCENTRICITY":"0.00014790","ELEMENT_SET_NO":"999","NORAD_CAT_ID":"47679","TIME_SYSTEM":"UTC","TLE_LINE1":"1 47679U 21012BM  22202.61980672  .00000052  00000-0  22403-4 0  9998","MEAN_ELEMENT_THEORY":"SGP4"},{"MEAN_ELEMENT_THEORY":"SGP4","TLE_LINE1":"1 47722U 21017A   22202.79539427 -.00000887  00000-0 -40642-4 0  9992","GP_ID":"208604331","ELEMENT_SET_NO":"999","TIME_SYSTEM":"UTC","NORAD_CAT_ID":"47722","ECCENTRICITY":"0.00013590","EPHEMERIS_TYPE":"0","COUNTRY_CODE":"US","CLASSIFICATION_TYPE":"U","OBJECT_ID":"2021-017A","SITE":"AFETR","BSTAR":"-0.00004064200000","EPOCH":"2022-07-21T19:05:22.064928","PERIOD":"95.592","APOAPSIS":"548.156","PERIAPSIS":"546.273","MEAN_ANOMALY":"278.9445","REV_AT_EPOCH":"7799","ARG_OF_PERICENTER":"81.1698","TLE_LINE2":"2 47722  53.0539  33.5134 0001359  81.1698 278.9445 15.06399676 77992","FILE":"3519265","RCS_SIZE":"LARGE","INCLINATION":"53.0539","SEMIMAJOR_AXIS":"6925.350","REF_FRAME":"TEME","RA_OF_ASC_NODE":"33.5134","OBJECT_TYPE":"PAYLOAD","OBJECT_NAME":"STARLINK-2068","MEAN_MOTION_DDOT":"0.0000000000000","CENTER_NAME":"EARTH","DECAY_DATE":null,"LAUNCH_DATE":"2021-03-04","MEAN_MOTION":"15.06399676","MEAN_MOTION_DOT":"-0.00000887"},{"CLASSIFICATION_TYPE":"U","OBJECT_ID":"2021-017B","COUNTRY_CODE":"US","EPHEMERIS_TYPE":"0","BSTAR":"-0.00006387600000","EPOCH":"2022-07-21T17:41:04.088832","SITE":"AFETR","MEAN_ANOMALY":"266.5293","PERIAPSIS":"546.470","APOAPSIS":"548.010","PERIOD":"95.593","MEAN_ELEMENT_THEORY":"SGP4","TLE_LINE1":"1 47723U 21017B   22202.73685288 -.00001232  00000-0 -63876-4 0  9993","NORAD_CAT_ID":"47723","ELEMENT_SET_NO":"999","ECCENTRICITY":"0.00011120","TIME_SYSTEM":"UTC","GP_ID":"208603090","REF_FRAME":"TEME","RA_OF_ASC_NODE":"328.5515","SEMIMAJOR_AXIS":"6925.375","MEAN_MOTION_DDOT":"0.0000000000000","OBJECT_NAME":"STARLINK-2107","OBJECT_TYPE":"PAYLOAD","MEAN_MOTION_DOT":"-0.00001232","LAUNCH_DATE":"2021-03-04","MEAN_MOTION":"15.06391298","DECAY_DATE":null,"CENTER_NAME":"EARTH","REV_AT_EPOCH":"7886","ARG_OF_PERICENTER":"93.5823","FILE":"3519265","TLE_LINE2":"2 47723  53.0538 328.5515 0001112  93.5823 266.5293 15.06391298 78869","INCLINATION":"53.0538","RCS_SIZE":"LARGE"},{"ELEMENT_SET_NO":"999","NORAD_CAT_ID":"47724","TIME_SYSTEM":"UTC","ECCENTRICITY":"0.00011840","GP_ID":"208603340","MEAN_ELEMENT_THEORY":"SGP4","TLE_LINE1":"1 47724U 21017C   22202.64101002 -.00002634  00000-0 -15802-3 0  9993","BSTAR":"-0.00015802000000","EPOCH":"2022-07-21T15:23:03.265728","SITE":"AFETR","MEAN_ANOMALY":"277.7106","PERIAPSIS":"546.410","APOAPSIS":"548.050","PERIOD":"95.592","OBJECT_ID":"2021-017C","CLASSIFICATION_TYPE":"U","COUNTRY_CODE":"US","EPHEMERIS_TYPE":"0","FILE":"3519265","TLE_LINE2":"2 47724  53.0555 328.9787 0001184  82.4017 277.7106 15.06394762 78816","INCLINATION":"53.0555","RCS_SIZE":"LARGE","REV_AT_EPOCH":"7881","ARG_OF_PERICENTER":"82.4017","MEAN_MOTION_DDOT":"0.0000000000000","OBJECT_NAME":"STARLINK-2116","OBJECT_TYPE":"PAYLOAD","MEAN_MOTION_DOT":"-0.00002634","MEAN_MOTION":"15.06394762","LAUNCH_DATE":"2021-03-04","DECAY_DATE":null,"CENTER_NAME":"EARTH","REF_FRAME":"TEME","RA_OF_ASC_NODE":"328.9787","SEMIMAJOR_AXIS":"6925.365"},{"OBJECT_NAME":"STARLINK-2125","MEAN_MOTION_DDOT":"0.0000000000000","OBJECT_TYPE":"PAYLOAD","MEAN_MOTION":"15.06388202","LAUNCH_DATE":"2021-03-04","MEAN_MOTION_DOT":"-0.00000782","CENTER_NAME":"EARTH","DECAY_DATE":null,"SEMIMAJOR_AXIS":"6925.385","RA_OF_ASC_NODE":"38.2360","REF_FRAME":"TEME","FILE":"3519265","TLE_LINE2":"2 47725  53.0552  38.2360 0001409  80.6756 279.4392 15.06388202 77875","INCLINATION":"53.0552","RCS_SIZE":"LARGE","REV_AT_EPOCH":"7787","ARG_OF_PERICENTER":"80.6756","EPOCH":"2022-07-21T19:23:14.860896","BSTAR":"-0.00003361300000","SITE":"AFETR","PERIAPSIS":"546.274","MEAN_ANOMALY":"279.4392","PERIOD":"95.593","APOAPSIS":"548.226","COUNTRY_CODE":"US","OBJECT_ID":"2021-017D","CLASSIFICATION_TYPE":"U","EPHEMERIS_TYPE":"0","ELEMENT_SET_NO":"999","ECCENTRICITY":"0.00014090","NORAD_CAT_ID":"47725","TIME_SYSTEM":"UTC","GP_ID":"208604085","MEAN_ELEMENT_THEORY":"SGP4","TLE_LINE1":"1 47725U 21017D   22202.80781089 -.00000782  00000-0 -33613-4 0  9994"},{"ELEMENT_SET_NO":"999","ECCENTRICITY":"0.00015070","NORAD_CAT_ID":"47726","TIME_SYSTEM":"UTC","GP_ID":"208604832","MEAN_ELEMENT_THEORY":"SGP4","TLE_LINE1":"1 47726U 21017E   22202.79306570 -.00000279  00000-0  16237-6 0  9996","EPOCH":"2022-07-21T19:02:00.876480","BSTAR":"0.00000016237000","SITE":"AFETR","MEAN_ANOMALY":"288.7698","PERIAPSIS":"546.190","APOAPSIS":"548.278","PERIOD":"95.593","OBJECT_ID":"2021-017E","CLASSIFICATION_TYPE":"U","COUNTRY_CODE":"US","EPHEMERIS_TYPE":"0","FILE":"3519265","TLE_LINE2":"2 47726  53.0558  38.2915 0001507  71.3454 288.7698 15.06393322 77869","INCLINATION":"53.0558","RCS_SIZE":"LARGE","REV_AT_EPOCH":"7786","ARG_OF_PERICENTER":"71.3454","MEAN_MOTION_DDOT":"0.0000000000000","OBJECT_NAME":"STARLINK-2126","OBJECT_TYPE":"PAYLOAD","MEAN_MOTION_DOT":"-0.00000279","LAUNCH_DATE":"2021-03-04","MEAN_MOTION":"15.06393322","DECAY_DATE":null,"CENTER_NAME":"EARTH","RA_OF_ASC_NODE":"38.2915","REF_FRAME":"TEME","SEMIMAJOR_AXIS":"6925.369"},{"TLE_LINE2":"2 47727  53.0555 318.2243 0001407  71.0718 289.0423 15.06376401 79020","FILE":"3519265","RCS_SIZE":"LARGE","INCLINATION":"53.0555","REV_AT_EPOCH":"7902","ARG_OF_PERICENTER":"71.0718","OBJECT_TYPE":"PAYLOAD","MEAN_MOTION_DDOT":"0.0000000000000","OBJECT_NAME":"STARLINK-2129","DECAY_DATE":null,"CENTER_NAME":"EARTH","MEAN_MOTION_DOT":"-0.00006052","LAUNCH_DATE":"2021-03-04","MEAN_MOTION":"15.06376401","REF_FRAME":"TEME","RA_OF_ASC_NODE":"318.2243","SEMIMAJOR_AXIS":"6925.421","GP_ID":"208603591","ELEMENT_SET_NO":"999","TIME_SYSTEM":"UTC","NORAD_CAT_ID":"47727","ECCENTRICITY":"0.00014070","MEAN_ELEMENT_THEORY":"SGP4","TLE_LINE1":"1 47727U 21017F   22202.81055916 -.00006052  00000-0 -38796-3 0  9992","SITE":"AFETR","EPOCH":"2022-07-21T19:27:12.311424","BSTAR":"-0.00038796000000","APOAPSIS":"548.260","PERIOD":"95.594","MEAN_ANOMALY":"289.0423","PERIAPSIS":"546.311","EPHEMERIS_TYPE":"0","CLASSIFICATION_TYPE":"U","OBJECT_ID":"2021-017F","COUNTRY_CODE":"US"},{"RCS_SIZE":"LARGE","INCLINATION":"53.0544","TLE_LINE2":"2 47728  53.0544  38.1123 0001542  82.1180 277.9984 15.06392903 77931","FILE":"3519265","ARG_OF_PERICENTER":"82.1180","REV_AT_EPOCH":"7793","CENTER_NAME":"EARTH","DECAY_DATE":null,"MEAN_MOTION":"15.06392903","LAUNCH_DATE":"2021-03-04","MEAN_MOTION_DOT":"-0.00000752","OBJECT_TYPE":"PAYLOAD","OBJECT_NAME":"STARLINK-2131","MEAN_MOTION_DDOT":"0.0000000000000","SEMIMAJOR_AXIS":"6925.370","RA_OF_ASC_NODE":"38.1123","REF_FRAME":"TEME","GP_ID":"208603841","NORAD_CAT_ID":"47728","ELEMENT_SET_NO":"999","ECCENTRICITY":"0.00015420","TIME_SYSTEM":"UTC","TLE_LINE1":"1 47728U 21017G   22202.83360662 -.00000752  00000-0 -31627-4 0  9990","MEAN_ELEMENT_THEORY":"SGP4","PERIOD":"95.593","APOAPSIS":"548.303","PERIAPSIS":"546.167","MEAN_ANOMALY":"277.9984","SITE":"AFETR","BSTAR":"-0.00003162700000","EPOCH":"2022-07-21T20:00:23.611968","EPHEMERIS_TYPE":"0","COUNTRY_CODE":"US","OBJECT_ID":"2021-017G","CLASSIFICATION_TYPE":"U"},{"TLE_LINE1":"1 47729U 21017H   22202.66362301  .00001006  00000-0  86465-4 0  9995","MEAN_ELEMENT_THEORY":"SGP4","NORAD_CAT_ID":"47729","ELEMENT_SET_NO":"999","ECCENTRICITY":"0.00016780","TIME_SYSTEM":"UTC","GP_ID":"208604586","CLASSIFICATION_TYPE":"U","OBJECT_ID":"2021-017H","COUNTRY_CODE":"US","EPHEMERIS_TYPE":"0","MEAN_ANOMALY":"260.8236","PERIAPSIS":"546.083","APOAPSIS":"548.407","PERIOD":"95.593","BSTAR":"0.00008646500000","EPOCH":"2022-07-21T15:55:37.028064","SITE":"AFETR","ARG_OF_PERICENTER":"99.2942","REV_AT_EPOCH":"7861","INCLINATION":"53.0547","RCS_SIZE":"LARGE","FILE":"3519265","TLE_LINE2":"2 47729  53.0547 344.0818 0001678  99.2942 260.8236 15.06389870 78616","REF_FRAME":"TEME","RA_OF_ASC_NODE":"344.0818","SEMIMAJOR_AXIS":"6925.380","MEAN_MOTION_DOT":"0.00001006","LAUNCH_DATE":"2021-03-04","MEAN_MOTION":"15.06389870","DECAY_DATE":null,"CENTER_NAME":"EARTH","MEAN_MOTION_DDOT":"0.0000000000000","OBJECT_NAME":"STARLINK-2132","OBJECT_TYPE":"PAYLOAD"},{"SEMIMAJOR_AXIS":"6925.435","REF_FRAME":"TEME","RA_OF_ASC_NODE":"53.0151","OBJECT_TYPE":"PAYLOAD","OBJECT_NAME":"STARLINK-2140","MEAN_MOTION_DDOT":"0.0000000000000","CENTER_NAME":"EARTH","DECAY_DATE":null,"LAUNCH_DATE":"2021-03-04","MEAN_MOTION":"15.06371859","MEAN_MOTION_DOT":"-0.00005056","REV_AT_EPOCH":"7767","ARG_OF_PERICENTER":"71.0845","TLE_LINE2":"2 47730  53.0545  53.0151 0001500  71.0845 289.0307 15.06371859 77672","FILE":"3519265","RCS_SIZE":"LARGE","INCLINATION":"53.0545","EPHEMERIS_TYPE":"0","COUNTRY_CODE":"US","CLASSIFICATION_TYPE":"U","OBJECT_ID":"2021-017J","SITE":"AFETR","BSTAR":"-0.00032102000000","EPOCH":"2022-07-21T20:32:55.150368","PERIOD":"95.594","APOAPSIS":"548.339","PERIAPSIS":"546.261","MEAN_ANOMALY":"289.0307","MEAN_ELEMENT_THEORY":"SGP4","TLE_LINE1":"1 47730U 21017J   22202.85619387 -.00005056  00000-0 -32102-3 0  9996","GP_ID":"208604332","ECCENTRICITY":"0.00015000","ELEMENT_SET_NO":"999","NORAD_CAT_ID":"47730","TIME_SYSTEM":"UTC"}];
